NORAD_CAT_ID,OBJECT_NAME,OBJECT_TYPE,EPOCH,MEAN_MOTION,ECCENTRICITY,INCLINATION,RA_OF_ASC_NODE,ARG_OF_PERICENTER,MEAN_ANOMALY,BSTAR,MEAN_MOTION_DOT,MEAN_MOTION_DDOT,TLE_LINE0,TLE_LINE1,TLE_LINE2,SEMIMAJOR_AXIS,PERIOD,APOGEE,PERIGEE,DECAYED
53268.0,STARLINK-4109,PAYLOAD,2024-04-21 01:58:46,15.08833494,0.0001639,53.2189,40.8993,83.0064,277.1114,-0.0003801,-6.331e-05,0.0,0 STARLINK-4109,1 53268U 22086AC  24112.08247713 -.00006331  00000-0 -38010-3 0  9994,2 53268  53.2189  40.8993 0001639  83.0064 277.1114 15.08833494 97089,6917.9,95.438,540.899,538.631,0.0
53268.0,STARLINK-4109,PAYLOAD,2024-04-21 05:09:32,15.08824321,0.0001886,53.2199,40.3069,84.8202,275.3005,-0.00067084,-0.00010944,0.0,0 STARLINK-4109,1 53268U 22086AC  24112.21495772 -.00010944  00000-0 -67084-3 0  9997,2 53268  53.2199  40.3069 0001886  84.8202 275.3005 15.08824321 97286,6917.928,95.439,541.098,538.489,0.0
53268.0,STARLINK-4109,PAYLOAD,2024-04-21 22:38:47,15.08820502,0.00017,53.2199,37.0409,82.8128,277.3058,5.1553e-05,5.32e-06,0.0,0 STARLINK-4109,1 53268U 22086AC  24112.94360953  .00000532  00000-0  51553-4 0  9994,2 53268  53.2199  37.0409 0001700  82.8128 277.3058 15.08820502 97396,6917.94,95.439,540.981,538.629,0.0
53268.0,STARLINK-4109,PAYLOAD,2024-04-22 05:00:20,15.08838487,0.0002022,53.2196,35.8464,104.4945,255.6272,0.0013905,0.0002191,0.0,0 STARLINK-4109,1 53268U 22086AC  24113.20857010  .00021910  00000-0  13905-2 0  9999,2 53268  53.2196  35.8464 0002022 104.4945 255.6272 15.08838487 97259,6917.885,95.438,541.149,538.351,0.0
53268.0,STARLINK-4109,PAYLOAD,2024-04-22 17:43:25,15.08841468,0.000213,53.2185,33.4679,96.6146,263.5089,0.00059976,9.27e-05,0.0,0 STARLINK-4109,1 53268U 22086AC  24113.73849244  .00009270  00000-0  59976-3 0  9991,2 53268  53.2185  33.4679 0002130  96.6146 263.5089 15.08841468 97330,6917.876,95.437,541.214,538.267,0.0
53268.0,STARLINK-4109,PAYLOAD,2024-04-22 22:29:35,15.0884002,0.0002079,53.2184,32.5745,109.8793,250.2423,0.0004224,6.441e-05,0.0,0 STARLINK-4109,1 53268U 22086AC  24113.93721168  .00006441  00000-0  42240-3 0  9990,2 53268  53.2184  32.5745 0002079 109.8793 250.2423 15.08840020 97541,6917.88,95.438,541.184,538.307,0.0
53268.0,STARLINK-4109,PAYLOAD,2024-04-23 00:04:58,15.08835093,0.0002038,53.2197,32.2784,110.7752,249.3458,0.00022602,3.31e-05,0.0,0 STARLINK-4109,1 53268U 22086AC  24114.00345282  .00003310  00000-0  22602-3 0  9990,2 53268  53.2197  32.2784 0002038 110.7752 249.3458 15.08835093 97378,6917.895,95.438,541.17,538.351,0.0
53268.0,STARLINK-4109,PAYLOAD,2024-04-23 22:20:22,15.08836326,0.0001733,53.2184,28.1158,103.0343,257.0842,0.00010458,1.377e-05,0.0,0 STARLINK-4109,1 53268U 22086AC  24114.93081577  .00001377  00000-0  10458-3 0  9993,2 53268  53.2184  28.1158 0001733 103.0343 257.0842 15.08836326 97693,6917.892,95.438,540.955,538.558,0.0
53268.0,STARLINK-4109,PAYLOAD,2024-04-24 04:41:54,15.08851173,0.0001491,53.2192,26.9273,97.9464,262.1697,0.0003735,5.663e-05,0.0,0 STARLINK-4109,1 53268U 22086AC  24115.19577179  .00005663  00000-0  37350-3 0  9992,2 53268  53.2192  26.9273 0001491  97.9464 262.1697 15.08851173 97559,6917.846,95.437,540.743,538.68,0.0
53268.0,STARLINK-4109,PAYLOAD,2024-04-24 22:11:09,15.08844775,0.0001739,53.2184,23.6552,113.8936,246.2238,0.00023487,3.452e-05,0.0,0 STARLINK-4109,1 53268U 22086AC  24115.92441339  .00003452  00000-0  23487-3 0  9991,2 53268  53.2184  23.6552 0001739 113.8936 246.2238 15.08844775 97847,6917.866,95.437,540.934,538.528,0.0
53268.0,STARLINK-4109,PAYLOAD,2024-04-25 02:57:18,15.08843414,0.0001217,53.218,22.7644,93.4171,266.696,0.00015506,2.181e-05,0.0,0 STARLINK-4109,1 53268U 22086AC  24116.12313276  .00002181  00000-0  15506-3 0  9993,2 53268  53.2180  22.7644 0001217  93.4171 266.6960 15.08843414 97690,6917.87,95.437,540.577,538.893,0.0
53268.0,STARLINK-4109,PAYLOAD,2024-04-25 22:01:56,15.08839684,0.0001156,53.2186,19.1949,90.4739,269.6385,-3.6792e-05,-8.73e-06,0.0,0 STARLINK-4109,1 53268U 22086AC  24116.91801518 -.00000873  00000-0 -36792-4 0  9990,2 53268  53.2186  19.1949 0001156  90.4739 269.6385 15.08839684 97994,6917.881,95.438,540.546,538.947,0.0
53268.0,STARLINK-4109,PAYLOAD,2024-04-26 10:45:01,15.08840597,0.0001299,53.2193,16.8196,87.5979,272.5162,-2.5402e-05,-6.92e-06,0.0,0 STARLINK-4109,1 53268U 22086AC  24117.44793605 -.00000692  00000-0 -25402-4 0  9991,2 53268  53.2193  16.8196 0001299  87.5979 272.5162 15.08840597 97891,6917.879,95.438,540.642,538.845,0.0
53268.0,STARLINK-4109,PAYLOAD,2024-04-26 17:06:35,15.08822339,0.0001839,53.2184,15.6331,77.7333,282.3865,-0.00012,-2.196e-05,0.0,0 STARLINK-4109,1 53268U 22086AC  24117.71291093 -.00002196  00000-0 -12000-3 0  9995,2 53268  53.2184  15.6331 0001839  77.7333 282.3865 15.08822339 97932,6917.934,95.439,541.072,538.527,0.0
53268.0,STARLINK-4109,PAYLOAD,2024-04-26 23:28:05,15.08875037,0.0001495,53.2195,14.4411,94.6037,265.5126,0.00063298,9.81e-05,0.0,0 STARLINK-4109,1 53268U 22086AC  24117.97784156  .00009810  00000-0  63298-3 0  9993,2 53268  53.2195  14.4411 0001495  94.6037 265.5126 15.08875037 98158,6917.773,95.435,540.673,538.604,0.0
53268.0,STARLINK-4109,PAYLOAD,2024-04-27 02:38:51,15.08883261,0.0001792,53.2197,13.8435,103.4001,256.7191,0.00070166,0.0001091,0.0,0 STARLINK-4109,1 53268U 22086AC  24118.11031482  .00010910  00000-0  70166-3 0  9992,2 53268  53.2197  13.8435 0001792 103.4001 256.7191 15.08883261 97992,6917.748,95.435,540.853,538.374,0.0
53268.0,STARLINK-4109,PAYLOAD,2024-04-27 10:35:46,15.08883385,0.0002094,53.2194,12.3592,71.3799,288.742,0.00065136,0.00010106,0.0,0 STARLINK-4109,1 53268U 22086AC  24118.44151015  .00010106  00000-0  65136-3 0  9991,2 53268  53.2194  12.3592 0002094  71.3799 288.7420 15.08883385 98224,6917.748,95.435,541.061,538.164,0.0
53268.0,STARLINK-4109,PAYLOAD,2024-04-27 20:08:09,15.08797994,0.000168,53.2193,10.5777,79.8019,280.3162,-0.00060365,-9.871e-05,0.0,0 STARLINK-4109,1 53268U 22086AC  24118.83899367 -.00009871  00000-0 -60365-3 0  9991,2 53268  53.2193  10.5777 0001680  79.8019 280.3162 15.08797994 98104,6918.009,95.44,541.036,538.712,0.0
53268.0,STARLINK-4109,PAYLOAD,2024-04-27 23:18:56,15.08800592,0.0001659,53.2198,9.9808,90.5038,269.6144,-0.00027225,-4.614e-05,0.0,0 STARLINK-4109,1 53268U 22086AC  24118.97148915 -.00004614  00000-0 -27225-3 0  9990,2 53268  53.2198   9.9808 0001659  90.5038 269.6144 15.08800592 98304,6918.001,95.44,541.014,538.718,0.0
53268.0,STARLINK-4109,PAYLOAD,2024-04-28 02:29:42,15.08805876,0.0001611,53.2198,9.3841,93.7525,266.3651,-0.0002917,-4.923e-05,0.0,0 STARLINK-4109,1 53268U 22086AC  24119.10396802 -.00004923  00000-0 -29170-3 0  9990,2 53268  53.2198   9.3841 0001611  93.7525 266.3651 15.08805876 98328,6917.985,95.44,540.964,538.735,0.0
53268.0,STARLINK-4109,PAYLOAD,2024-04-28 19:58:54,15.0883821,0.0002033,53.2195,6.1161,104.0776,256.0442,0.00030115,4.508e-05,0.0,0 STARLINK-4109,1 53268U 22086AC  24119.83258069  .00004508  00000-0  30115-3 0  9990,2 53268  53.2195   6.1161 0002033 104.0776 256.0442 15.08838210 98252,6917.886,95.438,541.157,538.344,0.0
53268.0,STARLINK-4109,PAYLOAD,2024-04-28 21:34:18,15.0883735,0.0002165,53.2205,5.8195,111.942,248.1802,0.00030386,4.551e-05,0.0,0 STARLINK-4109,1 53268U 22086AC  24119.89882082  .00004551  00000-0  30386-3 0  9992,2 53268  53.2205   5.8195 0002165 111.9420 248.1802 15.08837350 98443,6917.888,95.438,541.251,538.256,0.0
53268.0,STARLINK-4109,PAYLOAD,2024-04-29 02:20:26,15.08867977,0.00017,53.2187,4.9243,101.3785,258.7399,-9.9314e-05,-1.87e-05,0.0,0 STARLINK-4109,1 53268U 22086AC  24120.09752948 -.00001870  00000-0 -99314-4 0  9993,2 53268  53.2187   4.9243 0001700 101.3785 258.7399 15.08867977 98296,6917.795,95.436,540.836,538.484,0.0
53268.0,STARLINK-4109,PAYLOAD,2024-04-29 21:25:05,15.08817876,0.0001962,53.2196,1.3547,104.7436,255.3773,0.00039828,6.052e-05,0.0,0 STARLINK-4109,1 53268U 22086AC  24120.89242517  .00006052  00000-0  39828-3 0  9995,2 53268  53.2196   1.3547 0001962 104.7436 255.3773 15.08817876 98410,6917.948,95.439,541.17,538.456,0.0
53268.0,STARLINK-4109,PAYLOAD,2024-04-29 23:00:28,15.08820658,0.0001707,53.2188,1.0579,80.9808,279.1377,0.00042244,6.438e-05,0.0,0 STARLINK-4109,1 53268U 22086AC  24120.95866422  .00006438  00000-0  42244-3 0  9993,2 53268  53.2188   1.0579 0001707  80.9808 279.1377 15.08820658 98605,6917.94,95.439,540.985,538.624,0.0
53268.0,STARLINK-4109,PAYLOAD,2024-04-30 08:32:47,15.08833241,0.0001603,53.219,359.2768,81.8864,278.231,0.00036235,5.482e-05,0.0,0 STARLINK-4109,1 53268U 22086AC  24121.35610060  .00005482  00000-0  36235-3 0  9994,2 53268  53.2190 359.2768 0001603  81.8864 278.2310 15.08833241 98488,6917.901,95.438,540.875,538.657,0.0
53268.0,STARLINK-4109,PAYLOAD,2024-04-30 21:15:52,15.08840535,0.0001539,53.219,356.8956,85.1533,274.9635,-9.4742e-05,-1.796e-05,0.0,0 STARLINK-4109,1 53268U 22086AC  24121.88602913 -.00001796  00000-0 -94742-4 0  9994,2 53268  53.2190 356.8956 0001539  85.1533 274.9635 15.08840535 98564,6917.879,95.438,540.808,538.679,0.0
53268.0,STARLINK-4109,PAYLOAD,2024-04-30 22:51:15,15.0884259,0.0001515,53.2177,356.601,83.8286,276.2878,-6.702e-05,-1.355e-05,0.0,0 STARLINK-4109,1 53268U 22086AC  24121.95226661 -.00001355  00000-0 -67020-4 0  9994,2 53268  53.2177 356.6010 0001515  83.8286 276.2878 15.08842590 98750,6917.872,95.437,540.786,538.689,0.0
53268.0,STARLINK-4109,PAYLOAD,2024-05-01 08:23:33,15.08852424,0.000184,53.2194,354.8182,74.3291,285.7904,-3.6067e-05,-8.62e-06,0.0,0 STARLINK-4109,1 53268U 22086AC  24122.34969880 -.00000862  00000-0 -36067-4 0  9994,2 53268  53.2194 354.8182 0001840  74.3291 285.7904 15.08852424 98630,6917.842,95.437,540.98,538.435,0.0
53268.0,STARLINK-4109,PAYLOAD,2024-05-02 00:17:25,15.08841949,0.000158,53.2193,351.845,92.6828,267.4345,2.8066e-05,1.59e-06,0.0,0 STARLINK-4109,1 53268U 22086AC  24123.01210149  .00000159  00000-0  28066-4 0  9993,2 53268  53.2193 351.8450 0001580  92.6828 267.4345 15.08841949 98731,6917.874,95.437,540.832,538.646,0.0
